422P/Christensen,e,39.5368,36.0498,305.1558,6.321001,0.0620191,0.50874359,359.8235,01/11.0/2022,2000,g 11.0,4.0
# From MPEC 2022-A21
423P/Lemmon,e,8.3458,33.3091,80.3183,6.165339,0.0643826,0.12089314,7.3539,01/11.0/2022,2000,g  8.0,4.0
# From MPEC 2021-Y10
424P/LaSagra,e,8.6856,51.1780,312.4747,4.414149,0.1062756,0.69128677,7.5845,01/11.0/2022,2000,g 17.0,4.0
# From MPEC 2022-A21
425P/Kowalski,e,16.4209,210.0870,200.7427,6.330316,0.0618822,0.54344780,6.9649,01/11.0/2022,2000,g 12.0,4.0
# From MPEC 2021-Y10
426P/PANSTARRS,e,17.7746,280.5222,119.1788,3.185782,0.1733325,0.16129360,254.0483,01/11.0/2022,2000,g 13.5,4.0
# From MPEC 2021-Y10
428P/Gibbs,e,8.5150,299.3361,36.8169,3.484259,0.1515439,0.51952018,36.5726,01/11.0/2022,2000,g 15.0,4.0
# From MPEC 2021-Y10
429P/LINEAR-Hill,e,7.5220,322.0737,75.5346,3.550814,0.1473032,0.49132139,1.3058,01/11.0/2022,2000,g 15.5,4.0
# From MPEC 2021-Y10
430P/Scotti,e,4.4748,54.6727,94.5007,3.106997,0.1799669,0.49964366,7.1587,01/11.0/2022,2000,g 16.5,4.0
# From MPEC 2021-Y10
431P/Scotti,e,22.3916,202.8459,199.8542,3.472883,0.1522891,0.47776083,354.9196,01/11.0/2022,2000,g 14.0,4.0
# From MPEC 2021-U31
432P/PANSTARRS,e,10.0684,239.1452,105.2578,3.036151,0.1863027,0.24217415,24.8835,01/11.0/2022,2000,g 17.0,4.0
# From MPEC 2022-A21
434P/Tenagra,e,6.3398,288.9670,128.0436,4.127540,0.1175350,0.27427370,9.0770,01/11.0/2022,2000,g 13.0,4.0
# From MPEC 2021-W31
435P/PANSTARRS,e,18.8824,98.5506,244.1543,3.018619,0.1879281,0.31878110,31.4814,01/11.0/2022,2000,g 17.0,4.0
# From MPEC 2022-A21
436P/Garradd,e,20.2099,87.1912,282.5955,5.930911,0.0682373,0.66993008,2.2856,01/11.0/2022,2000,g 14.5,4.0
# From MPC107687
1I/`Oumuamua,h,09/09.4886/2017,122.6778,24.5997,241.6845,1.199252,0.255240,2000,23.0,2.0
# From MPEC 2020-K19
2I/Borisov,h,12/08.5549/2019,44.0527,308.1480,209.1251,3.356636,2.006548,2000,11.0,4.0
